1 25982U 99065C   19273.25217008 -.00000030  00000-0  40821-4 0  9995
2 25982  45.0175 192.9752 0005122  65.7820 294.3561 14.32038335 35362
1 25982U 99065C   19274.78696239 -.00000021  00000-0  44034-4 0  9991
2 25982  45.0176 185.7706 0005118  74.8013 285.3398 14.32038654 35588
1 25982U 99065C   19274.85672560 -.00000020 +00000-0 +44367-4 0  9998
2 25982 045.0176 185.4430 0005111 075.2335 284.9077 14.32038694035576
1 25982U 99065C   19275.20554191 -.00000019 +00000-0 +44783-4 0  9997
2 25982 045.0176 183.8058 0005116 077.2743 282.8675 14.32038807035627
1 25982U 99065C   19276.18222734 -.00000026  00000-0  42329-4 0  9992
2 25982  45.0176 179.2211 0005125  83.0311 277.1118 14.32039111 35788
1 25982U 99065C   19276.87985958 -.00000031 +00000-0 +40366-4 0  9997
2 25982 045.0177 175.9463 0005130 087.1807 272.9626 14.32039343035865
1 25982U 99065C   19277.22867567 -.00000031  00000-0  40366-4 0  9992
2 25982  45.0177 174.3090 0005143  89.2215 270.9221 14.32039477 35939
1 25982U 99065C   19277.85654453 -.00000034 +00000-0 +39429-4 0  9990
2 25982 045.0177 171.3616 0005153 092.9434 267.2001 14.32039684036009
1 25982U 99065C   19278.83322922 -.00000026  00000-0  42257-4 0  9996
2 25982  45.0176 166.7769 0005184  98.7447 261.3986 14.32040023 36160
1 25982U 99065C   19278.90299242 -.00000025 +00000-0 +42552-4 0  9999
2 25982 045.0176 166.4495 0005188 099.1523 260.9910 14.32040042036159
1 25982U 99065C   19279.87967685 -.00000009 +00000-0 +48359-4 0  9992
2 25982 045.0175 161.8648 0005223 104.8957 255.2467 14.32040351036294
1 25982U 99065C   19280.08896637 -.00000004  00000-0  50356-4 0  9990
2 25982  45.0175 160.8824 0005236 106.0827 254.0596 14.32040413 36348
1 25982U 99065C   19280.71683475 +.00000006 +00000-0 +53891-4 0  9992
2 25982 045.0174 157.9350 0005260 109.7322 250.4091 14.32040579036416
1 25982U 99065C   19281.13541365  .00000012  00000-0  56374-4 0  9996
2 25982  45.0174 155.9702 0005285 112.1224 248.0183 14.32040684 36491
1 25982U 99065C   19281.90280811 +.00000021 +00000-0 +59642-4 0  9998
2 25982 045.0173 152.3679 0005330 116.5896 243.5497 14.32040868036580
1 25982U 99065C   19282.73996552  .00000016  00000-0  57606-4 0  9998
2 25982  45.0172 148.4380 0005376 121.3818 238.7554 14.32041011 36729
1 25982U 99065C   19282.87949171 +.00000019 +00000-0 +58670-4 0  9993
2 25982 045.0172 147.7830 0005385 122.1882 237.9487 14.32041063036724
1 25982U 99065C   19283.78641177  .00000019  00000-0  58851-4 0  9990
2 25982  45.0172 143.5256 0005445 127.3556 232.7787 14.32041358 36871
1 25982U 99065C   19283.85617484 +.00000020 +00000-0 +59168-4 0  9996
2 25982 045.0172 143.1982 0005448 127.7492 232.3849 14.32041385036863
1 25982U 99065C   19284.62356851 +.00000016 +00000-0 +57838-4 0  9997
2 25982 045.0171 139.5957 0005499 132.0429 228.0885 14.32041644036970
